<?xml version="1.0" encoding="UTF-8"?>
<osm version="0.6" generator="Overpass API 0.7.55.5 2ca3f387">
<note>The data included in this document is from www.openstreetmap.org. The data is made available under ODbL.</note>
<meta osm_base="2018-12-06T15:17:02Z"/>

  <node id="2518801841" lat="-24.4755582" lon="-47.8281938">
    <tag k="addr:city" v="Registro"/>
    <tag k="addr:housename" v="BR 116 Rodovia Régis Bittencourt, Sentido Sudoeste (Deixando São Paulo para o Sul)"/>
    <tag k="addr:housenumber" v="Km 442"/>
    <tag k="addr:postcode" v="11900-000"/>
    <tag k="addr:street" v="Rodovia Régis Bittencourt"/>
    <tag k="amenity" v="fuel"/>
    <tag k="building" v="yes"/>
    <tag k="name" v="Graal Ouro Verde"/>
    <tag k="note" v="Parada frequente dos ônibus comerciais que deixam São Paulo para a Região Sul. Confortável, bom ambiente, preços um tanto altos."/>
    <tag k="operator" v="Rede Graal"/>
    <tag k="source" v="http://www.redegraal.com.br"/>
    <tag k="website" v="http://www.redegraal.com.br/m3.asp?cod_pagina=1178&amp;nome=raal%20Ouro%20Verde"/>
    <tag k="wikidata" v="Q10358213"/>
    <tag k="wikipedia" v="pt:Rede Graal"/>
  </node>
  <node id="2624165275" lat="-24.4924415" lon="-47.8770087">
    <tag k="amenity" v="school"/>
    <tag k="name" v="Escola Aurora Coelho"/>
  </node>
  <node id="3181844235" lat="-24.5048886" lon="-47.8557998">
    <tag k="amenity" v="place_of_worship"/>
  </node>
  <node id="3530858139" lat="-24.5300463" lon="-47.8577566">
    <tag k="amenity" v="fast_food"/>
  </node>
  <node id="3540174366" lat="-24.4932685" lon="-47.8382786">
    <tag k="amenity" v="fuel"/>
    <tag k="operator" v="Desativado"/>
  </node>
  <node id="3796272510" lat="-24.4957178" lon="-47.8422523">
    <tag k="amenity" v="place_of_worship"/>
    <tag k="name" v="Dr. Bezerra de Menezes"/>
    <tag k="religion" v="spiritualist"/>
  </node>
  <node id="3847452482" lat="-24.4957927" lon="-47.8440479">
    <tag k="amenity" v="fuel"/>
    <tag k="brand" v="Shell"/>
  </node>
  <node id="3848908840" lat="-24.4960500" lon="-47.8441121">
    <tag k="amenity" v="police"/>
    <tag k="name" v="Polícia Civil"/>
  </node>
  <node id="3851688845" lat="-24.4964865" lon="-47.8469558">
    <tag k="amenity" v="clinic"/>
    <tag k="name" v="Unidade Básica de Saúde"/>
    <tag k="operator" v="Prefeitura de Registro"/>
  </node>
  <node id="3859008525" lat="-24.4920697" lon="-47.8448474">
    <tag k="amenity" v="school"/>
    <tag k="name" v="Colégio Andersen"/>
  </node>
  <node id="3859008530" lat="-24.4912862" lon="-47.8422457">
    <tag k="amenity" v="post_office"/>
    <tag k="name" v="Correios"/>
  </node>
  <node id="3859008534" lat="-24.4878467" lon="-47.8410816">
    <tag k="amenity" v="pub"/>
    <tag k="name" v="Pub Acústico"/>
  </node>
  <node id="3859008536" lat="-24.4931088" lon="-47.8448657">
    <tag k="amenity" v="place_of_worship"/>
    <tag k="denomination" v="presbyterian"/>
    <tag k="name" v="Igreja Presbiteriana do Brasil"/>
    <tag k="religion" v="christian"/>
  </node>
  <node id="3859008542" lat="-24.4908768" lon="-47.8423125">
    <tag k="amenity" v="bank"/>
    <tag k="atm" v="yes"/>
    <tag k="name" v="Bradesco"/>
  </node>
  <node id="3859291386" lat="-24.4967093" lon="-47.8478034">
    <tag k="amenity" v="bank"/>
    <tag k="atm" v="yes"/>
    <tag k="name" v="Caixa Econômica Federal"/>
  </node>
  <node id="3859291387" lat="-24.4949158" lon="-47.8459336">
    <tag k="amenity" v="bank"/>
    <tag k="atm" v="yes"/>
    <tag k="name" v="Banco do Brasil"/>
  </node>
  <node id="3859310324" lat="-24.4961996" lon="-47.8490931">
    <tag k="amenity" v="public_building"/>
    <tag k="name" v="Fórum"/>
  </node>
  <node id="3859326728" lat="-24.5016155" lon="-47.8521805">
    <tag k="amenity" v="police"/>
    <tag k="name" v="2ª CIA da Policia Militar Ambiental"/>
  </node>
  <node id="3928762843" lat="-24.4971589" lon="-47.8470390">
    <tag k="amenity" v="place_of_worship"/>
    <tag k="name" v="Bola de Neve Church"/>
    <tag k="religion" v="christian"/>
  </node>
  <node id="3928762844" lat="-24.5059188" lon="-47.8478231">
    <tag k="amenity" v="police"/>
  </node>
  <node id="3928762846" lat="-24.4979184" lon="-47.8470006">
    <tag k="amenity" v="place_of_worship"/>
    <tag k="name" v="Igreja Universal"/>
    <tag k="religion" v="christian"/>
  </node>
  <node id="3928762849" lat="-24.4981049" lon="-47.8469964">
    <tag k="amenity" v="clinic"/>
    <tag k="name" v="Policlínica"/>
  </node>
  <node id="3928762850" lat="-24.5070553" lon="-47.8478875">
    <tag k="amenity" v="police"/>
    <tag k="name" v="Polícia Militar"/>
  </node>
  <node id="3928762851" lat="-24.4982952" lon="-47.8469333">
    <tag k="amenity" v="public_building"/>
    <tag k="name" v="Previdência Social"/>
  </node>
  <node id="3928762854" lat="-24.5041132" lon="-47.8410610">
    <tag k="amenity" v="clinic"/>
    <tag k="name" v="Vitara"/>
  </node>
  <node id="3928764293" lat="-24.5051163" lon="-47.8475108">
    <tag k="amenity" v="police"/>
    <tag k="name" v="PRF"/>
    <tag k="police" v="traffic_police"/>
  </node>
  <node id="4261698028" lat="-24.4895212" lon="-47.8427551">
    <tag k="amenity" v="register_office"/>
    <tag k="name" v="Cartório Cível"/>
  </node>
  <node id="4261770228" lat="-24.4918645" lon="-47.8411423">
    <tag k="amenity" v="place_of_worship"/>
    <tag k="building" v="church"/>
    <tag k="denomination" v="evangelical"/>
    <tag k="name" v="Assembléia de Deus"/>
    <tag k="religion" v="christian"/>
  </node>
  <node id="4261770244" lat="-24.4920939" lon="-47.8413626">
    <tag k="amenity" v="fuel"/>
  </node>
  <node id="4270903381" lat="-24.4956440" lon="-47.8451772">
    <tag k="addr:city" v="Registro"/>
    <tag k="addr:postcode" v="11900-000"/>
    <tag k="addr:street" v="Rua José Antônio de Campos"/>
    <tag k="addr:suburb" v="Centro"/>
    <tag k="amenity" v="townhall"/>
    <tag k="name" v="Prefeitura Municipal de Registro"/>
  </node>
  <node id="4675801026" lat="-24.4983730" lon="-47.8480295">
    <tag k="addr:city" v="Registro"/>
    <tag k="addr:housenumber" v="156"/>
    <tag k="addr:postcode" v="11900-000"/>
    <tag k="addr:street" v="Rua Doutor Waldemar Lopes Ferraz"/>
    <tag k="addr:suburb" v="Vila Tupi"/>
    <tag k="amenity" v="place_of_worship"/>
    <tag k="denomination" v="Calvinista_Presbiteriana"/>
    <tag k="name" v="Igreja Presbiteriana Independente"/>
    <tag k="religion" v="christian"/>
  </node>
  <node id="4675801027" lat="-24.4989074" lon="-47.8482560">
    <tag k="addr:city" v="Registro"/>
    <tag k="addr:housenumber" v="220"/>
    <tag k="addr:postcode" v="11900-000"/>
    <tag k="addr:street" v="Rua Doutor Waldemar Lopes Ferraz"/>
    <tag k="addr:suburb" v="Vila Tupi"/>
    <tag k="amenity" v="social_facility"/>
    <tag k="name" v="APAE - Associação de Pais Amigos dos Excepcionais de Registro"/>
    <tag k="phone" v="+55 (13) 3821-1581"/>
  </node>
  <node id="4675801028" lat="-24.4974864" lon="-47.8470140">
    <tag k="addr:city" v="Registro"/>
    <tag k="addr:housenumber" v="131"/>
    <tag k="addr:postcode" v="11900-000"/>
    <tag k="addr:street" v="Avenida Wild José de Souza"/>
    <tag k="addr:suburb" v="Vila Tupi"/>
    <tag k="amenity" v="place_of_worship"/>
    <tag k="denomination" v="Evangélica_Neopentecostal"/>
    <tag k="name" v="Igreja Mundial do Poder de Deus"/>
    <tag k="religion" v="christian"/>
  </node>
  <node id="4675801029" lat="-24.5001852" lon="-47.8525099">
    <tag k="amenity" v="place_of_worship"/>
    <tag k="religion" v="christian"/>
  </node>
  <node id="4748666523" lat="-24.4885223" lon="-47.8392582">
    <tag k="amenity" v="arts_centre"/>
    <tag k="name" v="Casa da Cultura Ribeirinha"/>
  </node>
  <node id="4813682921" lat="-24.4916110" lon="-47.8411605">
    <tag k="amenity" v="restaurant"/>
    <tag k="contact:facebook" v="https://www.facebook.com/cafenaturargt/"/>
    <tag k="diet:gluten_free" v="yes"/>
    <tag k="diet:lactose_free" v="yes"/>
    <tag k="name" v="Café Natura"/>
    <tag k="opening_hours" v="09:00-20:00; Su off"/>
    <tag k="organic" v="yes"/>
  </node>
  <node id="4813722823" lat="-24.4921166" lon="-47.8400405">
    <tag k="amenity" v="cafe"/>
    <tag k="internet_access" v="wlan"/>
    <tag k="name" v="Waikiki"/>
    <tag k="name:pt" v="Waikiki"/>
  </node>
  <node id="4980475421" lat="-24.4951588" lon="-47.8418537">
    <tag k="addr:housenumber" v="685"/>
    <tag k="addr:postcode" v="11900-000"/>
    <tag k="addr:street" v="Rua Sinfrônio Costa"/>
    <tag k="amenity" v="place_of_worship"/>
    <tag k="name" v="A Igreja de Jesus Cristo dos Santos dos Últimos Dias"/>
    <tag k="name:pt" v="A Igreja de Jesus Cristo dos Santos dos Últimos Dias"/>
    <tag k="opening_hours" v="Su 09:00-12:00"/>
    <tag k="website" v="http://www.mormon.org"/>
  </node>
  <node id="5454700493" lat="-24.4760145" lon="-47.8283850">
    <tag k="amenity" v="fast_food"/>
  </node>
  <node id="5454700501" lat="-24.4994339" lon="-47.8510002">
    <tag k="amenity" v="fast_food"/>
    <tag k="name" v="Casa do Pão de Queijo"/>
  </node>
  <node id="5454700505" lat="-24.5006806" lon="-47.8463259">
    <tag k="amenity" v="fast_food"/>
    <tag k="name" v="Parada Total"/>
  </node>
  <node id="5454700540" lat="-24.4974166" lon="-47.8408615">
    <tag k="amenity" v="fast_food"/>
    <tag k="name" v="Box do Espetinho"/>
  </node>
  <node id="5454700543" lat="-24.5017160" lon="-47.8454415">
    <tag k="amenity" v="fast_food"/>
  </node>
  <node id="5454700559" lat="-24.5145302" lon="-47.8348355">
    <tag k="amenity" v="fast_food"/>
  </node>
  <node id="5454700566" lat="-24.4758385" lon="-47.8282248">
    <tag k="amenity" v="restaurant"/>
  </node>
  <node id="5454700571" lat="-24.5299575" lon="-47.8586114">
    <tag k="amenity" v="pharmacy"/>
    <tag k="healthcare" v="pharmacy"/>
  </node>
  <node id="5454700574" lat="-24.5292396" lon="-47.8571792">
    <tag k="amenity" v="fuel"/>
  </node>
  <node id="5454700575" lat="-24.5302216" lon="-47.8573402">
    <tag k="amenity" v="parking"/>
  </node>
  <node id="5454700576" lat="-24.5295762" lon="-47.8574699">
    <tag k="amenity" v="bus_station"/>
    <tag k="bus" v="yes"/>
    <tag k="public_transport" v="station"/>
  </node>
  <node id="5454700582" lat="-24.5297790" lon="-47.8582903">
    <tag k="amenity" v="parking"/>
  </node>
  <node id="5454700583" lat="-24.5288923" lon="-47.8572843">
    <tag k="amenity" v="fuel"/>
  </node>
  <node id="5454700587" lat="-24.5297547" lon="-47.8579514">
    <tag k="amenity" v="restaurant"/>
  </node>
  <node id="5454700590" lat="-24.4753491" lon="-47.8292745">
    <tag k="amenity" v="pharmacy"/>
    <tag k="healthcare" v="pharmacy"/>
  </node>
  <node id="5454700591" lat="-24.4762768" lon="-47.8283826">
    <tag k="amenity" v="bus_station"/>
    <tag k="bus" v="yes"/>
    <tag k="public_transport" v="station"/>
  </node>
  <node id="5454700592" lat="-24.4759676" lon="-47.8278234">
    <tag k="amenity" v="parking"/>
  </node>
  <node id="5454700593" lat="-24.4755424" lon="-47.8289206">
    <tag k="amenity" v="parking"/>
  </node>
  <node id="5454700721" lat="-24.4751107" lon="-47.8284180">
    <tag k="amenity" v="compressed_air"/>
  </node>
  <node id="5454700723" lat="-24.5290032" lon="-47.8581219">
    <tag k="amenity" v="compressed_air"/>
  </node>
  <node id="5454700727" lat="-24.5295423" lon="-47.8575730">
    <tag k="amenity" v="water_point"/>
  </node>
  <node id="5454700728" lat="-24.5298080" lon="-47.8577553">
    <tag k="amenity" v="public_bath"/>
  </node>
  <node id="5454700729" lat="-24.5297260" lon="-47.8576824">
    <tag k="amenity" v="shower"/>
  </node>
  <node id="5454700730" lat="-24.5299248" lon="-47.8576588">
    <tag k="amenity" v="toilets"/>
  </node>
  <node id="5454700733" lat="-24.5302146" lon="-47.8577284">
    <tag k="amenity" v="arts_centre"/>
  </node>
  <node id="5454700734" lat="-24.5307713" lon="-47.8578344">
    <tag k="amenity" v="bench"/>
  </node>
  <node id="5454700735" lat="-24.5303869" lon="-47.8577714">
    <tag k="amenity" v="atm"/>
  </node>
  <node id="5454700736" lat="-24.5299553" lon="-47.8580308">
    <tag k="amenity" v="ice_cream"/>
  </node>
  <node id="5454700745" lat="-24.4979872" lon="-47.8492107">
    <tag k="amenity" v="parking"/>
  </node>
  <node id="5454700747" lat="-24.4984774" lon="-47.8495933">
    <tag k="amenity" v="water_point"/>
  </node>
  <node id="5454700755" lat="-24.4896417" lon="-47.8379720">
    <tag k="amenity" v="place_of_worship"/>
    <tag k="religion" v="shinto"/>
  </node>
  <node id="5454700759" lat="-24.4882270" lon="-47.8392807">
    <tag k="amenity" v="water_point"/>
  </node>
  <node id="5454700760" lat="-24.4879263" lon="-47.8396649">
    <tag k="amenity" v="theatre"/>
  </node>
  <node id="5454700761" lat="-24.4877981" lon="-47.8400337">
    <tag k="amenity" v="arts_centre"/>
  </node>
  <node id="5454700763" lat="-24.4876000" lon="-47.8401361">
    <tag k="amenity" v="fast_food"/>
  </node>
  <node id="5454700769" lat="-24.4871152" lon="-47.8409454">
    <tag k="amenity" v="pub"/>
  </node>
  <node id="5454700776" lat="-24.4869404" lon="-47.8410991">
    <tag k="amenity" v="bench"/>
  </node>
  <node id="5454700779" lat="-24.4873087" lon="-47.8410735">
    <tag k="amenity" v="ice_cream"/>
  </node>
  <node id="5454700780" lat="-24.4872201" lon="-47.8412886">
    <tag k="amenity" v="pub"/>
  </node>
  <node id="5454700784" lat="-24.4867936" lon="-47.8412092">
    <tag k="amenity" v="marketplace"/>
  </node>
  <node id="5454700789" lat="-24.4869917" lon="-47.8413450">
    <tag k="amenity" v="restaurant"/>
  </node>
  <node id="5454700790" lat="-24.4870057" lon="-47.8414269">
    <tag k="amenity" v="studio"/>
  </node>
  <node id="5454700794" lat="-24.4875697" lon="-47.8418777">
    <tag k="amenity" v="pub"/>
  </node>
  <node id="5454700795" lat="-24.4874136" lon="-47.8418008">
    <tag k="amenity" v="restaurant"/>
  </node>
  <node id="5454700797" lat="-24.4876839" lon="-47.8415499">
    <tag k="amenity" v="pub"/>
  </node>
  <node id="5454700798" lat="-24.4878704" lon="-47.8416036">
    <tag k="amenity" v="pub"/>
  </node>
  <node id="5454700801" lat="-24.4864044" lon="-47.8410837">
    <tag k="amenity" v="parking"/>
  </node>
  <node id="5454700802" lat="-24.4874951" lon="-47.8415140">
    <tag k="amenity" v="parking"/>
  </node>
  <node id="5454700804" lat="-24.4879776" lon="-47.8414013">
    <tag k="amenity" v="restaurant"/>
  </node>
  <node id="5454700805" lat="-24.4883435" lon="-47.8415396">
    <tag k="amenity" v="place_of_worship"/>
  </node>
  <node id="5454700810" lat="-24.4892385" lon="-47.8382998">
    <tag k="amenity" v="bench"/>
  </node>
  <node id="5454700811" lat="-24.4886203" lon="-47.8389174">
    <tag k="amenity" v="bench"/>
  </node>
  <node id="5454700814" lat="-24.4901959" lon="-47.8377094">
    <tag k="amenity" v="parking"/>
  </node>
  <node id="5454700816" lat="-24.4900068" lon="-47.8378561">
    <tag k="amenity" v="motorcycle_parking"/>
  </node>
  <node id="5454700817" lat="-24.4902850" lon="-47.8372350">
    <tag k="amenity" v="parking_space"/>
  </node>
  <node id="5454700818" lat="-24.4898933" lon="-47.8374306">
    <tag k="amenity" v="dojo"/>
  </node>
  <node id="5454701021" lat="-24.4891871" lon="-47.8382156">
    <tag k="amenity" v="ferry_terminal"/>
    <tag k="ferry" v="yes"/>
    <tag k="public_transport" v="station"/>
  </node>
  <node id="5454701022" lat="-24.4872527" lon="-47.8401622">
    <tag k="amenity" v="ferry_terminal"/>
    <tag k="ferry" v="yes"/>
    <tag k="public_transport" v="station"/>
  </node>
  <node id="5454701025" lat="-24.4870236" lon="-47.8415844">
    <tag k="amenity" v="place_of_worship"/>
    <tag k="name" v="Prever"/>
  </node>
  <node id="5454701029" lat="-24.4860779" lon="-47.8405136">
    <tag k="amenity" v="boat_rental"/>
  </node>
  <node id="5454701030" lat="-24.4870958" lon="-47.8408617">
    <tag k="amenity" v="fast_food"/>
  </node>
  <node id="5454701031" lat="-24.4881876" lon="-47.8414767">
    <tag k="amenity" v="vending_machine"/>
    <tag k="vending" v="parking_tickets"/>
  </node>
  <node id="5454701032" lat="-24.4895735" lon="-47.8392759">
    <tag k="amenity" v="place_of_worship"/>
    <tag k="religion" v="christian"/>
  </node>
  <node id="5454701033" lat="-24.4891983" lon="-47.8396003">
    <tag k="amenity" v="place_of_worship"/>
  </node>
  <node id="5454701034" lat="-24.4894198" lon="-47.8399518">
    <tag k="amenity" v="place_of_worship"/>
  </node>
  <node id="5454701035" lat="-24.4896842" lon="-47.8399788">
    <tag k="amenity" v="community_centre"/>
  </node>
  <node id="5454701036" lat="-24.4894136" lon="-47.8395597">
    <tag k="amenity" v="parking"/>
  </node>
  <node id="5454701038" lat="-24.4893903" lon="-47.8390634">
    <tag k="amenity" v="school"/>
    <tag k="name" v="Curso Comunitario"/>
  </node>
  <node id="5454701052" lat="-24.4883065" lon="-47.8413238">
    <tag k="amenity" v="pub"/>
  </node>
  <node id="5454701053" lat="-24.4880973" lon="-47.8412427">
    <tag k="amenity" v="motorcycle_parking"/>
  </node>
  <node id="5454701061" lat="-24.4877209" lon="-47.8420531">
    <tag k="amenity" v="fast_food"/>
  </node>
  <node id="5460740672" lat="-24.5243926" lon="-47.8697152">
    <tag k="amenity" v="car_wash"/>
  </node>
  <node id="5506855353" lat="-24.5092323" lon="-47.8438414">
    <tag k="amenity" v="toilets"/>
  </node>
  <node id="5506855358" lat="-24.5090453" lon="-47.8436383">
    <tag k="amenity" v="watering_place"/>
  </node>
  <node id="5506855359" lat="-24.5089837" lon="-47.8439675">
    <tag k="amenity" v="bench"/>
  </node>
  <node id="5506855360" lat="-24.5088647" lon="-47.8438204">
    <tag k="amenity" v="arts_centre"/>
  </node>
  <node id="5554521835" lat="-24.4976006" lon="-47.8444273">
    <tag k="amenity" v="place_of_worship"/>
    <tag k="name" v="Torii"/>
    <tag k="religion" v="shinto"/>
  </node>
  <node id="5554521836" lat="-24.4967301" lon="-47.8442882">
    <tag k="amenity" v="place_of_worship"/>
    <tag k="name" v="Torii"/>
    <tag k="religion" v="shinto"/>
  </node>
  <node id="5779532303" lat="-24.4874116" lon="-47.8402966">
    <tag k="amenity" v="bicycle_parking"/>
  </node>
  <node id="5980470236" lat="-24.4999954" lon="-47.8652327">
    <tag k="amenity" v="internet_cafe"/>
  </node>
  <node id="5980470239" lat="-24.5002506" lon="-47.8652001">
    <tag k="amenity" v="community_centre"/>
  </node>
  <node id="5980470241" lat="-24.5002987" lon="-47.8646513">
    <tag k="amenity" v="parking"/>
  </node>
  <node id="5980470242" lat="-24.5022113" lon="-47.8653384">
    <tag k="amenity" v="parking"/>
  </node>
  <node id="5980470245" lat="-24.4999670" lon="-47.8650798">
    <tag k="amenity" v="school"/>
    <tag k="name" v="Cursos Comunitarios"/>
  </node>

</osm>
